{"type":"Feature","properties":{},"geometry":{"type":"Polygon","coordinates":[[[12.091,50.252],[12.14,50.277],[12.105,50.322],[12.185,50.322],[12.201,50.309],[12.201,50.273],[12.266,50.259],[12.24,50.247],[12.294,50.221],[12.275,50.197],[12.292,50.176],[12.334,50.172],[12.323,50.182],[12.338,50.192],[12.323,50.207],[12.331,50.242],[12.357,50.243],[12.365,50.28],[12.401,50.295],[12.398,50.321],[12.431,50.323],[12.469,50.355],[12.489,50.35],[12.486,50.371],[12.512,50.397],[12.673,50.417],[12.707,50.398],[12.734,50.432],[12.795,50.449],[12.811,50.432],[12.819,50.46],[12.941,50.405],[13.019,50.446],[13.032,50.51],[13.085,50.5],[13.133,50.519],[13.138,50.506],[13.196,50.503],[13.248,50.592],[13.279,50.593],[13.292,50.575],[13.323,50.581],[13.325,50.608],[13.377,50.627],[13.371,50.651],[13.465,50.602],[13.524,50.639],[13.513,50.654],[13.544,50.678],[13.525,50.704],[13.552,50.714],[13.603,50.71],[13.665,50.732],[13.707,50.717],[13.758,50.736],[13.855,50.727],[13.862,50.743],[13.899,50.745],[13.887,50.77],[13.901,50.793],[13.939,50.79],[13.991,50.82],[14.03,50.804],[14.072,50.811],[14.224,50.859],[14.233,50.888],[14.267,50.895],[14.305,50.884],[14.388,50.899],[14.396,50.937],[14.311,50.954],[14.303,50.965],[14.328,50.973],[14.324,50.985],[14.259,50.988],[14.261,51.009],[14.286,51.027],[14.274,51.04],[14.302,51.055],[14.383,51.039],[14.409,51.019],[14.454,51.036],[14.492,51.023],[14.491,51.044],[14.508,51.043],[14.499,51.022],[14.532,51.017],[14.535,51.004],[14.565,51.01],[14.599,50.987],[14.564,50.919],[14.65,50.932],[14.653,50.905],[14.62,50.858],[14.767,50.819],[14.8,50.823],[14.83,50.873],[15.002,50.869],[14.994,50.892],[15.006,50.907],[14.989,50.922],[15.021,50.968],[15.006,50.986],[14.968,50.99],[14.985,51.011],[15.061,51.023],[15.129,50.99],[15.144,51.013],[15.172,51.02],[15.18,50.983],[15.237,50.999],[15.248,50.98],[15.274,50.98],[15.292,50.953],[15.268,50.932],[15.277,50.891],[15.367,50.838],[15.375,50.778],[15.44,50.809],[15.524,50.777],[15.604,50.776],[15.706,50.737],[15.816,50.755],[15.862,50.674],[15.961,50.692],[15.991,50.683],[16.002,50.644],[16.022,50.63],[15.986,50.614],[16.024,50.599],[16.056,50.61],[16.068,50.64],[16.104,50.663],[16.17,50.645],[16.184,50.627],[16.217,50.633],[16.235,50.672],[16.343,50.662],[16.445,50.58],[16.405,50.569],[16.411,50.548],[16.389,50.541],[16.402,50.53],[16.36,50.501],[16.312,50.506],[16.294,50.479],[16.259,50.48],[16.222,50.458],[16.232,50.443],[16.213,50.452],[16.196,50.432],[16.215,50.409],[16.253,50.406],[16.279,50.368],[16.305,50.383],[16.361,50.38],[16.362,50.35],[16.383,50.329],[16.431,50.325],[16.548,50.23],[16.561,50.164],[16.634,50.111],[16.706,50.097],[16.745,50.135],[16.783,50.145],[16.801,50.18],[16.837,50.203],[16.882,50.2],[16.899,50.223],[16.956,50.223],[16.976,50.245],[16.998,50.216],[17.027,50.229],[17.002,50.256],[17.02,50.278],[17.003,50.302],[16.946,50.315],[16.911,50.389],[16.86,50.408],[16.899,50.448],[16.974,50.418],[16.998,50.428],[17.111,50.405],[17.143,50.38],[17.203,50.386],[17.201,50.364],[17.282,50.319],[17.349,50.328],[17.338,50.314],[17.354,50.308],[17.339,50.283],[17.351,50.264],[17.386,50.283],[17.421,50.277],[17.438,50.252],[17.496,50.275],[17.592,50.279],[17.612,50.266],[17.686,50.299],[17.687,50.328],[17.71,50.323],[17.752,50.3],[17.726,50.257],[17.765,50.236],[17.758,50.207],[17.718,50.206],[17.705,50.185],[17.593,50.16],[17.65,50.111],[17.676,50.103],[17.697,50.117],[17.731,50.097],[17.777,50.02],[17.828,50.011],[17.83,49.993],[17.868,49.973],[17.919,49.978],[18.005,50.018],[18.045,50.006],[18.044,50.037],[18.004,50.039],[18.034,50.066],[18.089,50.044],[18.103,50.023],[18.095,50.012],[18.117,49.994],[18.155,49.982],[18.173,50.0],[18.207,49.998],[18.215,49.972],[18.276,49.965],[18.283,49.936],[18.318,49.916],[18.351,49.935],[18.335,49.94],[18.333,49.949],[18.431,49.938],[18.524,49.9],[18.546,49.908],[18.539,49.926],[18.573,49.922],[18.566,49.881],[18.606,49.862],[18.569,49.829],[18.629,49.747],[18.626,49.723],[18.71,49.704],[18.741,49.677],[18.805,49.679],[18.825,49.6],[18.839,49.595],[18.837,49.563],[18.859,49.548],[18.838,49.524],[18.851,49.517],[18.808,49.515],[18.755,49.488],[18.678,49.508],[18.546,49.5],[18.534,49.485],[18.548,49.468],[18.476,49.409],[18.45,49.394],[18.404,49.397],[18.416,49.368],[18.379,49.331],[18.185,49.287],[18.184,49.27],[18.147,49.248],[18.155,49.216],[18.131,49.189],[18.137,49.161],[18.107,49.134],[18.122,49.118],[18.095,49.059],[18.057,49.029],[17.924,49.02],[17.885,48.928],[17.783,48.925],[17.703,48.86],[17.633,48.855],[17.589,48.825],[17.554,48.831],[17.528,48.812],[17.453,48.847],[17.397,48.813],[17.361,48.814],[17.321,48.845],[17.2,48.878],[17.111,48.831],[17.089,48.786],[17.043,48.764],[16.94,48.617],[16.919,48.622],[16.923,48.67],[16.902,48.718],[16.8,48.706],[16.724,48.738],[16.683,48.728],[16.663,48.781],[16.594,48.783],[16.541,48.814],[16.519,48.798],[16.461,48.809],[16.435,48.766],[16.378,48.728],[16.343,48.744],[16.33,48.731],[16.103,48.745],[15.994,48.779],[15.95,48.805],[15.958,48.823],[15.893,48.835],[15.877,48.859],[15.841,48.86],[15.852,48.867],[15.841,48.877],[15.78,48.875],[15.754,48.852],[15.69,48.856],[15.614,48.898],[15.513,48.914],[15.469,48.952],[15.425,48.952],[15.353,48.984],[15.306,48.978],[15.279,48.995],[15.262,48.954],[15.225,48.96],[15.16,48.942],[15.17,48.963],[15.156,48.993],[15.065,49.0],[15.064,49.014],[15.021,49.02],[14.995,49.015],[14.998,48.992],[14.976,48.971],[14.993,48.904],[14.973,48.874],[14.985,48.842],[14.968,48.837],[14.953,48.795],[14.979,48.772],[14.956,48.758],[14.88,48.78],[14.809,48.779],[14.808,48.734],[14.727,48.687],[14.713,48.651],[14.721,48.602],[14.706,48.585],[14.663,48.582],[14.654,48.604],[14.626,48.605],[14.611,48.628],[14.562,48.603],[14.504,48.617],[14.47,48.647],[14.444,48.643],[14.456,48.625],[14.431,48.589],[14.388,48.593],[14.388,48.572],[14.359,48.575],[14.333,48.552],[14.271,48.581],[14.067,48.595],[14.069,48.606],[14.042,48.613],[14.047,48.628],[14.011,48.64],[14.053,48.653],[14.059,48.674],[14.034,48.677],[14.004,48.708],[13.956,48.714],[13.876,48.767],[13.813,48.774],[13.803,48.781],[13.814,48.798],[13.792,48.83],[13.764,48.834],[13.737,48.885],[13.671,48.88],[13.622,48.939],[13.63,48.948],[13.61,48.939],[13.58,48.971],[13.508,48.969],[13.498,48.941],[13.426,48.972],[13.403,48.987],[13.397,49.051],[13.289,49.119],[13.236,49.114],[13.183,49.134],[13.171,49.174],[13.11,49.203],[13.114,49.218],[13.086,49.229],[13.081,49.247],[13.034,49.264],[13.029,49.304],[12.945,49.344],[12.881,49.35],[12.887,49.332],[12.786,49.345],[12.757,49.395],[12.656,49.435],[12.634,49.476],[12.644,49.523],[12.589,49.538],[12.56,49.62],[12.528,49.618],[12.521,49.686],[12.442,49.704],[12.401,49.754],[12.474,49.789],[12.473,49.834],[12.498,49.838],[12.498,49.857],[12.55,49.902],[12.548,49.92],[12.475,49.939],[12.498,49.973],[12.467,49.993],[12.431,49.984],[12.431,50.002],[12.34,50.039],[12.326,50.033],[12.318,50.053],[12.261,50.058],[12.274,50.077],[12.2,50.111],[12.195,50.143],[12.216,50.168],[12.201,50.188],[12.16,50.211],[12.151,50.236],[12.091,50.252]],[[15.897,48.849],[15.897,48.838],[15.905,48.839],[15.897,48.849]],[[12.947,50.407],[12.944,50.404],[12.948,50.405],[12.947,50.407]]]}}